[{"OBJECT_NAME":"SL-8 R/B","OBJECT_ID":"1991-006B","EPOCH":"2026-03-26T07:59:36.696768","MEAN_MOTION":13.77496692,"ECCENTRICITY":0.00220093,"INCLINATION":82.9449,"RA_OF_ASC_NODE":157.6726,"ARG_OF_PERICENTER":352.2982,"MEAN_ANOMALY":80.3254,"EPHEMERIS_TYPE":0,"CLASSIFICATION_TYPE":"U","NORAD_CAT_ID":21088,"ELEMENT_SET_NO":999,"REV_AT_EPOCH":76636,"BSTAR":6.272087e-5,"MEAN_MOTION_DOT":7.8e-7,"MEAN_MOTION_DDOT":0},{"OBJECT_NAME":"OKEAN-3","OBJECT_ID":"1991-039A","EPOCH":"2026-03-26T02:28:04.010880","MEAN_MOTION":15.04900323,"ECCENTRICITY":0.00123432,"INCLINATION":82.5165,"RA_OF_ASC_NODE":320.9416,"ARG_OF_PERICENTER":275.8889,"MEAN_ANOMALY":84.0931,"EPHEMERIS_TYPE":0,"CLASSIFICATION_TYPE":"U","NORAD_CAT_ID":21397,"ELEMENT_SET_NO":999,"REV_AT_EPOCH":86750,"BSTAR":0.00013267974,"MEAN_MOTION_DOT":1.907e-5,"MEAN_MOTION_DDOT":0},{"OBJECT_NAME":"COSMOS 2151","OBJECT_ID":"1991-042A","EPOCH":"2026-03-26T05:24:42.921792","MEAN_MOTION":15.00172076,"ECCENTRICITY":0.00127359,"INCLINATION":82.4944,"RA_OF_ASC_NODE":67.7201,"ARG_OF_PERICENTER":11.9905,"MEAN_ANOMALY":348.1619,"EPHEMERIS_TYPE":0,"CLASSIFICATION_TYPE":"U","NORAD_CAT_ID":21422,"ELEMENT_SET_NO":999,"REV_AT_EPOCH":86567,"BSTAR":0.00020439603,"MEAN_MOTION_DOT":2.582e-5,"MEAN_MOTION_DDOT":0},{"OBJECT_NAME":"SL-14 R/B","OBJECT_ID":"1991-042B","EPOCH":"2026-03-26T07:14:07.980000","MEAN_MOTION":14.81845873,"ECCENTRICITY":0.00169939,"INCLINATION":82.4953,"RA_OF_ASC_NODE":204.6078,"ARG_OF_PERICENTER":181.6215,"MEAN_ANOMALY":178.4947,"EPHEMERIS_TYPE":0,"CLASSIFICATION_TYPE":"U","NORAD_CAT_ID":21423,"ELEMENT_SET_NO":999,"REV_AT_EPOCH":85553,"BSTAR":5.7846543e-5,"MEAN_MOTION_DOT":4.81e-6,"MEAN_MOTION_DDOT":0},{"OBJECT_NAME":"ERS-1","OBJECT_ID":"1991-050A","EPOCH":"2026-03-26T07:26:58.617024","MEAN_MOTION":14.39461494,"ECCENTRICITY":0.0032561,"INCLINATION":98.7869,"RA_OF_ASC_NODE":103.9621,"ARG_OF_PERICENTER":151.3013,"MEAN_ANOMALY":208.9974,"EPHEMERIS_TYPE":0,"CLASSIFICATION_TYPE":"U","NORAD_CAT_ID":21574,"ELEMENT_SET_NO":999,"REV_AT_EPOCH":81812,"BSTAR":0.00011398696,"MEAN_MOTION_DOT":3.11e-6,"MEAN_MOTION_DDOT":0},{"OBJECT_NAME":"ARIANE 40 R/B","OBJECT_ID":"1991-050F","EPOCH":"2026-03-26T02:43:50.145312","MEAN_MOTION":14.42905128,"ECCENTRICITY":0.00036939,"INCLINATION":98.1979,"RA_OF_ASC_NODE":136.7312,"ARG_OF_PERICENTER":44.4428,"MEAN_ANOMALY":315.7059,"EPHEMERIS_TYPE":0,"CLASSIFICATION_TYPE":"U","NORAD_CAT_ID":21610,"ELEMENT_SET_NO":999,"REV_AT_EPOCH":82136,"BSTAR":0.00010031838,"MEAN_MOTION_DOT":2.94e-6,"MEAN_MOTION_DDOT":0},{"OBJECT_NAME":"INTERCOSMOS 25","OBJECT_ID":"1991-086A","EPOCH":"2026-03-26T02:02:02.620320","MEAN_MOTION":12.12053672,"ECCENTRICITY":0.14866366,"INCLINATION":82.602,"RA_OF_ASC_NODE":300.0971,"ARG_OF_PERICENTER":81.6081,"MEAN_ANOMALY":295.019,"EPHEMERIS_TYPE":0,"CLASSIFICATION_TYPE":"U","NORAD_CAT_ID":21819,"ELEMENT_SET_NO":999,"REV_AT_EPOCH":49867,"BSTAR":0.00025131131,"MEAN_MOTION_DOT":1.319e-5,"MEAN_MOTION_DDOT":0},{"OBJECT_NAME":"SL-8 R/B","OBJECT_ID":"1992-008B","EPOCH":"2026-03-26T00:31:18.799968","MEAN_MOTION":13.75969559,"ECCENTRICITY":0.00359817,"INCLINATION":82.9228,"RA_OF_ASC_NODE":255.6254,"ARG_OF_PERICENTER":89.252,"MEAN_ANOMALY":27.9384,"EPHEMERIS_TYPE":0,"CLASSIFICATION_TYPE":"U","NORAD_CAT_ID":21876,"ELEMENT_SET_NO":999,"REV_AT_EPOCH":71166,"BSTAR":1.0571527e-5,"MEAN_MOTION_DOT":2.6e-7,"MEAN_MOTION_DDOT":0},{"OBJECT_NAME":"SL-8 R/B","OBJECT_ID":"1992-020B","EPOCH":"2026-03-26T06:40:51.680352","MEAN_MOTION":13.75550482,"ECCENTRICITY":0.00276798,"INCLINATION":82.9309,"RA_OF_ASC_NODE":141.4453,"ARG_OF_PERICENTER":250.2704,"MEAN_ANOMALY":178.8498,"EPHEMERIS_TYPE":0,"CLASSIFICATION_TYPE":"U","NORAD_CAT_ID":21938,"ELEMENT_SET_NO":999,"REV_AT_EPOCH":70341,"BSTAR":1.4474671e-5,"MEAN_MOTION_DOT":2.9e-7,"MEAN_MOTION_DDOT":0},{"OBJECT_NAME":"USA 81","OBJECT_ID":"1992-023A","EPOCH":"2026-03-26T01:48:29.331936","MEAN_MOTION":14.323731,"ECCENTRICITY":0.00019044,"INCLINATION":85.0052,"RA_OF_ASC_NODE":121.9855,"ARG_OF_PERICENTER":68.3498,"MEAN_ANOMALY":291.7897,"EPHEMERIS_TYPE":0,"CLASSIFICATION_TYPE":"U","NORAD_CAT_ID":21949,"ELEMENT_SET_NO":999,"REV_AT_EPOCH":9713,"BSTAR":5.3502542e-5,"MEAN_MOTION_DOT":1.64e-6,"MEAN_MOTION_DDOT":0},{"OBJECT_NAME":"COSMOS 2219","OBJECT_ID":"1992-076A","EPOCH":"2026-03-26T01:46:07.152960","MEAN_MOTION":14.14091743,"ECCENTRICITY":0.00180516,"INCLINATION":71.0629,"RA_OF_ASC_NODE":343.8219,"ARG_OF_PERICENTER":183.2782,"MEAN_ANOMALY":176.8226,"EPHEMERIS_TYPE":0,"CLASSIFICATION_TYPE":"U","NORAD_CAT_ID":22219,"ELEMENT_SET_NO":999,"REV_AT_EPOCH":72069,"BSTAR":-9.3704242e-5,"MEAN_MOTION_DOT":-2.26e-6,"MEAN_MOTION_DDOT":0},{"OBJECT_NAME":"SL-16 R/B","OBJECT_ID":"1992-076B","EPOCH":"2026-03-26T06:54:35.619264","MEAN_MOTION":14.16863927,"ECCENTRICITY":0.00106516,"INCLINATION":71.0002,"RA_OF_ASC_NODE":153.4128,"ARG_OF_PERICENTER":65.2872,"MEAN_ANOMALY":357.9686,"EPHEMERIS_TYPE":0,"CLASSIFICATION_TYPE":"U","NORAD_CAT_ID":22220,"ELEMENT_SET_NO":999,"REV_AT_EPOCH":72418,"BSTAR":3.5558051e-5,"MEAN_MOTION_DOT":2.3e-7,"MEAN_MOTION_DDOT":0},{"OBJECT_NAME":"COSMOS 2221","OBJECT_ID":"1992-080A","EPOCH":"2026-03-25T22:55:29.546976","MEAN_MOTION":14.96264596,"ECCENTRICITY":0.00153574,"INCLINATION":82.5007,"RA_OF_ASC_NODE":263.4954,"ARG_OF_PERICENTER":134.2693,"MEAN_ANOMALY":225.9792,"EPHEMERIS_TYPE":0,"CLASSIFICATION_TYPE":"U","NORAD_CAT_ID":22236,"ELEMENT_SET_NO":999,"REV_AT_EPOCH":78322,"BSTAR":0.00018087358,"MEAN_MOTION_DOT":2.072e-5,"MEAN_MOTION_DDOT":0},{"OBJECT_NAME":"SL-16 R/B","OBJECT_ID":"1992-093B","EPOCH":"2026-03-26T03:14:21.418368","MEAN_MOTION":14.15453002,"ECCENTRICITY":0.00064135,"INCLINATION":71.0233,"RA_OF_ASC_NODE":329.7455,"ARG_OF_PERICENTER":277.5766,"MEAN_ANOMALY":82.4628,"EPHEMERIS_TYPE":0,"CLASSIFICATION_TYPE":"U","NORAD_CAT_ID":22285,"ELEMENT_SET_NO":999,"REV_AT_EPOCH":71548,"BSTAR":0.00017572825,"MEAN_MOTION_DOT":2.96e-6,"MEAN_MOTION_DDOT":0},{"OBJECT_NAME":"COSMOS 2228","OBJECT_ID":"1992-094A","EPOCH":"2026-03-26T05:28:20.998848","MEAN_MOTION":14.97271551,"ECCENTRICITY":0.00167158,"INCLINATION":82.5181,"RA_OF_ASC_NODE":221.4748,"ARG_OF_PERICENTER":244.1151,"MEAN_ANOMALY":115.8349,"EPHEMERIS_TYPE":0,"CLASSIFICATION_TYPE":"U","NORAD_CAT_ID":22286,"ELEMENT_SET_NO":999,"REV_AT_EPOCH":77853,"BSTAR":0.00018612197,"MEAN_MOTION_DOT":2.187e-5,"MEAN_MOTION_DDOT":0},{"OBJECT_NAME":"SL-16 R/B","OBJECT_ID":"1993-016B","EPOCH":"2026-03-26T07:38:26.981376","MEAN_MOTION":14.15305484,"ECCENTRICITY":0.0012342,"INCLINATION":71.0079,"RA_OF_ASC_NODE":180.2585,"ARG_OF_PERICENTER":292.6349,"MEAN_ANOMALY":67.3468,"EPHEMERIS_TYPE":0,"CLASSIFICATION_TYPE":"U","NORAD_CAT_ID":22566,"ELEMENT_SET_NO":999,"REV_AT_EPOCH":70452,"BSTAR":-4.6487693e-5,"MEAN_MOTION_DOT":-1.38e-6,"MEAN_MOTION_DDOT":0},{"OBJECT_NAME":"COSMOS 2242","OBJECT_ID":"1993-024A","EPOCH":"2026-03-25T22:47:53.138976","MEAN_MOTION":14.9661577,"ECCENTRICITY":0.0014961,"INCLINATION":82.516,"RA_OF_ASC_NODE":251.1585,"ARG_OF_PERICENTER":248.8587,"MEAN_ANOMALY":111.1037,"EPHEMERIS_TYPE":0,"CLASSIFICATION_TYPE":"U","NORAD_CAT_ID":22626,"ELEMENT_SET_NO":999,"REV_AT_EPOCH":78282,"BSTAR":0.00018305,"MEAN_MOTION_DOT":2.115e-5,"MEAN_MOTION_DDOT":0}]
