SL-8 R/B                
1 21088U 91006B   26085.33306362  .00000078  00000+0  62721-4 0  9998
2 21088  82.9449 157.6726 0022009 352.2982  80.3254 13.77496692766369
OKEAN-3                 
1 21397U 91039A   26085.10282420  .00001907  00000+0  13268-3 0  9993
2 21397  82.5165 320.9416 0012343 275.8889  84.0931 15.04900323867504
COSMOS 2151             
1 21422U 91042A   26085.22549678  .00002582  00000+0  20440-3 0  9990
2 21422  82.4944  67.7201 0012735  11.9905 348.1619 15.00172076865673
SL-14 R/B               
1 21423U 91042B   26085.30148125  .00000481  00000+0  57847-4 0  9990
2 21423  82.4953 204.6078 0016993 181.6215 178.4947 14.81845873855539
ERS-1                   
1 21574U 91050A   26085.31040066  .00000311  00000+0  11399-3 0  9995
2 21574  98.7869 103.9621 0032561 151.3013 208.9974 14.39461494818125
ARIANE 40 R/B           
1 21610U 91050F   26085.11377483  .00000294  00000+0  10032-3 0  9993
2 21610  98.1979 136.7312 0003693  44.4428 315.7059 14.42905128821361
INTERCOSMOS 25          
1 21819U 91086A   26085.08475255  .00001319  00000+0  25131-3 0  9990
2 21819  82.6020 300.0971 1486636  81.6081 295.0190 12.12053672498678
SL-8 R/B                
1 21876U 92008B   26085.02174537  .00000026  00000+0  10572-4 0  9999
2 21876  82.9228 255.6254 0035981  89.2520  27.9384 13.75969559711661
SL-8 R/B                
1 21938U 92020B   26085.27837593  .00000029  00000+0  14475-4 0  9996
2 21938  82.9309 141.4453 0027679 250.2704 178.8498 13.75550482703419
USA 81                  
1 21949U 92023A   26085.07533949  .00000164  00000+0  53503-4 0  9992
2 21949  85.0052 121.9855 0001904  68.3498 291.7897 14.32373100 97137
COSMOS 2219             
1 22219U 92076A   26085.07369390 -.00000226  00000+0 -93704-4 0  9996
2 22219  71.0629 343.8219 0018051 183.2782 176.8226 14.14091743720699
SL-16 R/B               
1 22220U 92076B   26085.28791226  .00000023  00000+0  35558-4 0  9994
2 22220  71.0002 153.4128 0010651  65.2872 357.9686 14.16863927724180
COSMOS 2221             
1 22236U 92080A   26084.95520309  .00002072  00000+0  18087-3 0  9994
2 22236  82.5007 263.4954 0015357 134.2693 225.9792 14.96264596783221
SL-16 R/B               
1 22285U 92093B   26085.13497012  .00000296  00000+0  17573-3 0  9992
2 22285  71.0233 329.7455 0006413 277.5766  82.4628 14.15453002715486
COSMOS 2228             
1 22286U 92094A   26085.22802082  .00002187  00000+0  18612-3 0  9997
2 22286  82.5181 221.4748 0016715 244.1151 115.8349 14.97271551778536
SL-16 R/B               
1 22566U 93016B   26085.31836784 -.00000138  00000+0 -46488-4 0  9998
2 22566  71.0079 180.2585 0012342 292.6349  67.3468 14.15305484704520
COSMOS 2242             
1 22626U 93024A   26084.94992059  .00002115  00000+0  18305-3 0  9991
2 22626  82.5160 251.1585 0014961 248.8587 111.1037 14.96615770782829
